[{"OBJECT_NAME":"STARLINK-32304","OBJECT_ID":"2024-152U","EPOCH":"2025-10-17T02:24:39.995424","MEAN_MOTION":15.30192572,"ECCENTRICITY":0.0001064,"INCLINATION":53.1603,"RA_OF_ASC_NODE":215.6027,"ARG_OF_PERICENTER":98.8686,"MEAN_ANOMALY":261.2436,"EPHEMERIS_TYPE":0,"CLASSIFICATION_TYPE":"U","NORAD_CAT_ID":60738,"ELEMENT_SET_NO":999,"REV_AT_EPOCH":6486,"BSTAR":-7.3553e-6,"MEAN_MOTION_DOT":-5.77e-6,"MEAN_MOTION_DDOT":0},{"OBJECT_NAME":"STARLINK-32235","OBJECT_ID":"2024-152V","EPOCH":"2025-10-17T03:54:09.257760","MEAN_MOTION":15.30200714,"ECCENTRICITY":0.0001141,"INCLINATION":53.1586,"RA_OF_ASC_NODE":215.2798,"ARG_OF_PERICENTER":83.4159,"MEAN_ANOMALY":276.6971,"EPHEMERIS_TYPE":0,"CLASSIFICATION_TYPE":"U","NORAD_CAT_ID":60739,"ELEMENT_SET_NO":999,"REV_AT_EPOCH":6482,"BSTAR":7.6631e-5,"MEAN_MOTION_DOT":1.911e-5,"MEAN_MOTION_DDOT":0},{"OBJECT_NAME":"STARLINK-32315","OBJECT_ID":"2024-152W","EPOCH":"2025-10-17T02:15:32.637600","MEAN_MOTION":15.30198385,"ECCENTRICITY":0.0001237,"INCLINATION":53.1612,"RA_OF_ASC_NODE":215.5631,"ARG_OF_PERICENTER":90.0543,"MEAN_ANOMALY":270.0599,"EPHEMERIS_TYPE":0,"CLASSIFICATION_TYPE":"U","NORAD_CAT_ID":60740,"ELEMENT_SET_NO":999,"REV_AT_EPOCH":6473,"BSTAR":1.1309e-5,"MEAN_MOTION_DOT":-2.4e-7,"MEAN_MOTION_DDOT":0},{"OBJECT_NAME":"STARLINK-11242 [DTC]","OBJECT_ID":"2024-154A","EPOCH":"2025-10-17T00:35:28.692960","MEAN_MOTION":15.69710604,"ECCENTRICITY":7.67e-5,"INCLINATION":53.1581,"RA_OF_ASC_NODE":119.2295,"ARG_OF_PERICENTER":58.8129,"MEAN_ANOMALY":301.2964,"EPHEMERIS_TYPE":0,"CLASSIFICATION_TYPE":"U","NORAD_CAT_ID":60903,"ELEMENT_SET_NO":999,"REV_AT_EPOCH":6595,"BSTAR":1.5406e-5,"MEAN_MOTION_DOT":1.279e-5,"MEAN_MOTION_DDOT":0},{"OBJECT_NAME":"STARLINK-11256 [DTC]","OBJECT_ID":"2024-154B","EPOCH":"2025-10-17T02:00:05.868000","MEAN_MOTION":15.69719375,"ECCENTRICITY":0.0001191,"INCLINATION":53.157,"RA_OF_ASC_NODE":118.8825,"ARG_OF_PERICENTER":87.6744,"MEAN_ANOMALY":272.4411,"EPHEMERIS_TYPE":0,"CLASSIFICATION_TYPE":"U","NORAD_CAT_ID":60904,"ELEMENT_SET_NO":999,"REV_AT_EPOCH":6596,"BSTAR":7.4556e-6,"MEAN_MOTION_DOT":3.15e-6,"MEAN_MOTION_DDOT":0},{"OBJECT_NAME":"STARLINK-11159 [DTC]","OBJECT_ID":"2024-154C","EPOCH":"2025-10-17T00:14:26.238624","MEAN_MOTION":15.6971793,"ECCENTRICITY":0.0001009,"INCLINATION":53.157,"RA_OF_ASC_NODE":119.8657,"ARG_OF_PERICENTER":98.1336,"MEAN_ANOMALY":261.9797,"EPHEMERIS_TYPE":0,"CLASSIFICATION_TYPE":"U","NORAD_CAT_ID":60905,"ELEMENT_SET_NO":999,"REV_AT_EPOCH":6594,"BSTAR":1.5654e-5,"MEAN_MOTION_DOT":1.309e-5,"MEAN_MOTION_DDOT":0},{"OBJECT_NAME":"STARLINK-11264 [DTC]","OBJECT_ID":"2024-154D","EPOCH":"2025-10-17T03:10:44.366016","MEAN_MOTION":15.6972177,"ECCENTRICITY":9.61e-5,"INCLINATION":53.1562,"RA_OF_ASC_NODE":119.2064,"ARG_OF_PERICENTER":72.0239,"MEAN_ANOMALY":288.0883,"EPHEMERIS_TYPE":0,"CLASSIFICATION_TYPE":"U","NORAD_CAT_ID":60906,"ELEMENT_SET_NO":999,"REV_AT_EPOCH":6596,"BSTAR":1.7281e-5,"MEAN_MOTION_DOT":1.506e-5,"MEAN_MOTION_DDOT":0},{"OBJECT_NAME":"STARLINK-11226 [DTC]","OBJECT_ID":"2024-154E","EPOCH":"2025-10-17T00:00:18.872352","MEAN_MOTION":15.6971174,"ECCENTRICITY":6.61e-5,"INCLINATION":53.1579,"RA_OF_ASC_NODE":119.8008,"ARG_OF_PERICENTER":127.2115,"MEAN_ANOMALY":232.8963,"EPHEMERIS_TYPE":0,"CLASSIFICATION_TYPE":"U","NORAD_CAT_ID":60907,"ELEMENT_SET_NO":999,"REV_AT_EPOCH":6594,"BSTAR":-8.5174e-7,"MEAN_MOTION_DOT":-6.91e-6,"MEAN_MOTION_DDOT":0},{"OBJECT_NAME":"STARLINK-11229 [DTC]","OBJECT_ID":"2024-154F","EPOCH":"2025-10-17T01:24:55.935936","MEAN_MOTION":15.69712159,"ECCENTRICITY":9.52e-5,"INCLINATION":53.1572,"RA_OF_ASC_NODE":119.4547,"ARG_OF_PERICENTER":93.9297,"MEAN_ANOMALY":266.1829,"EPHEMERIS_TYPE":0,"CLASSIFICATION_TYPE":"U","NORAD_CAT_ID":60908,"ELEMENT_SET_NO":999,"REV_AT_EPOCH":6595,"BSTAR":2.4219e-6,"MEAN_MOTION_DOT":-2.95e-6,"MEAN_MOTION_DDOT":0},{"OBJECT_NAME":"STARLINK-11265 [DTC]","OBJECT_ID":"2024-154G","EPOCH":"2025-10-17T00:21:30.206016","MEAN_MOTION":15.69717697,"ECCENTRICITY":0.0001212,"INCLINATION":53.1571,"RA_OF_ASC_NODE":119.8967,"ARG_OF_PERICENTER":82.7234,"MEAN_ANOMALY":277.3922,"EPHEMERIS_TYPE":0,"CLASSIFICATION_TYPE":"U","NORAD_CAT_ID":60909,"ELEMENT_SET_NO":999,"REV_AT_EPOCH":6594,"BSTAR":6.3547e-6,"MEAN_MOTION_DOT":1.81e-6,"MEAN_MOTION_DDOT":0},{"OBJECT_NAME":"STARLINK-11250 [DTC]","OBJECT_ID":"2024-154H","EPOCH":"2025-10-16T20:42:49.735296","MEAN_MOTION":15.6968707,"ECCENTRICITY":9.72e-5,"INCLINATION":53.1573,"RA_OF_ASC_NODE":120.3626,"ARG_OF_PERICENTER":75.6216,"MEAN_ANOMALY":284.4909,"EPHEMERIS_TYPE":0,"CLASSIFICATION_TYPE":"U","NORAD_CAT_ID":60910,"ELEMENT_SET_NO":999,"REV_AT_EPOCH":6592,"BSTAR":2.8228e-5,"MEAN_MOTION_DOT":2.829e-5,"MEAN_MOTION_DDOT":0},{"OBJECT_NAME":"STARLINK-11190 [DTC]","OBJECT_ID":"2024-154J","EPOCH":"2025-10-16T20:35:46.881600","MEAN_MOTION":15.69691676,"ECCENTRICITY":9.72e-5,"INCLINATION":53.1568,"RA_OF_ASC_NODE":120.3285,"ARG_OF_PERICENTER":99.8062,"MEAN_ANOMALY":260.3065,"EPHEMERIS_TYPE":0,"CLASSIFICATION_TYPE":"U","NORAD_CAT_ID":60911,"ELEMENT_SET_NO":999,"REV_AT_EPOCH":6591,"BSTAR":-3.2868e-5,"MEAN_MOTION_DOT":-4.565e-5,"MEAN_MOTION_DDOT":0},{"OBJECT_NAME":"STARLINK-11225 [DTC]","OBJECT_ID":"2024-154K","EPOCH":"2025-10-17T01:03:43.427232","MEAN_MOTION":15.6972846,"ECCENTRICITY":6.59e-5,"INCLINATION":53.1573,"RA_OF_ASC_NODE":119.355,"ARG_OF_PERICENTER":98.5515,"MEAN_ANOMALY":261.5578,"EPHEMERIS_TYPE":0,"CLASSIFICATION_TYPE":"U","NORAD_CAT_ID":60912,"ELEMENT_SET_NO":999,"REV_AT_EPOCH":6594,"BSTAR":7.9733e-6,"MEAN_MOTION_DOT":3.79e-6,"MEAN_MOTION_DDOT":0},{"OBJECT_NAME":"STARLINK-11273 [DTC]","OBJECT_ID":"2024-154L","EPOCH":"2025-10-17T00:56:40.843968","MEAN_MOTION":15.69710313,"ECCENTRICITY":9.73e-5,"INCLINATION":53.1572,"RA_OF_ASC_NODE":119.3227,"ARG_OF_PERICENTER":81.6924,"MEAN_ANOMALY":278.4205,"EPHEMERIS_TYPE":0,"CLASSIFICATION_TYPE":"U","NORAD_CAT_ID":60913,"ELEMENT_SET_NO":999,"REV_AT_EPOCH":6594,"BSTAR":2.2436e-6,"MEAN_MOTION_DOT":-3.17e-6,"MEAN_MOTION_DDOT":0},{"OBJECT_NAME":"STARLINK-11248 [DTC]","OBJECT_ID":"2024-154M","EPOCH":"2025-10-17T00:49:18.863040","MEAN_MOTION":15.69887215,"ECCENTRICITY":0.0001283,"INCLINATION":53.158,"RA_OF_ASC_NODE":119.2881,"ARG_OF_PERICENTER":139.8239,"MEAN_ANOMALY":220.2874,"EPHEMERIS_TYPE":0,"CLASSIFICATION_TYPE":"U","NORAD_CAT_ID":60914,"ELEMENT_SET_NO":999,"REV_AT_EPOCH":6594,"BSTAR":0.00015793,"MEAN_MOTION_DOT":0.00018727,"MEAN_MOTION_DDOT":0},{"OBJECT_NAME":"STARLINK-11271 [DTC]","OBJECT_ID":"2024-154N","EPOCH":"2025-10-17T00:42:33.253920","MEAN_MOTION":15.69708266,"ECCENTRICITY":9.22e-5,"INCLINATION":53.1574,"RA_OF_ASC_NODE":119.2554,"ARG_OF_PERICENTER":113.7536,"MEAN_ANOMALY":246.3579,"EPHEMERIS_TYPE":0,"CLASSIFICATION_TYPE":"U","NORAD_CAT_ID":60915,"ELEMENT_SET_NO":999,"REV_AT_EPOCH":6594,"BSTAR":-8.3801e-6,"MEAN_MOTION_DOT":-1.603e-5,"MEAN_MOTION_DDOT":0},{"OBJECT_NAME":"STARLINK-32371","OBJECT_ID":"2024-154P","EPOCH":"2025-10-17T02:52:03.969696","MEAN_MOTION":15.30203363,"ECCENTRICITY":0.0001216,"INCLINATION":53.1612,"RA_OF_ASC_NODE":230.7159,"ARG_OF_PERICENTER":85.1381,"MEAN_ANOMALY":274.9758,"EPHEMERIS_TYPE":0,"CLASSIFICATION_TYPE":"U","NORAD_CAT_ID":60916,"ELEMENT_SET_NO":999,"REV_AT_EPOCH":6435,"BSTAR":0.00010323,"MEAN_MOTION_DOT":2.7e-5,"MEAN_MOTION_DDOT":0},{"OBJECT_NAME":"STARLINK-32369","OBJECT_ID":"2024-154Q","EPOCH":"2025-10-17T02:24:43.397856","MEAN_MOTION":15.30189266,"ECCENTRICITY":0.0001467,"INCLINATION":53.1602,"RA_OF_ASC_NODE":230.6006,"ARG_OF_PERICENTER":91.1253,"MEAN_ANOMALY":268.9916,"EPHEMERIS_TYPE":0,"CLASSIFICATION_TYPE":"U","NORAD_CAT_ID":60917,"ELEMENT_SET_NO":999,"REV_AT_EPOCH":6435,"BSTAR":9.4741e-5,"MEAN_MOTION_DOT":2.447e-5,"MEAN_MOTION_DDOT":0},{"OBJECT_NAME":"STARLINK-32317","OBJECT_ID":"2024-154R","EPOCH":"2025-10-17T03:28:32.224224","MEAN_MOTION":15.30199545,"ECCENTRICITY":9.37e-5,"INCLINATION":53.1604,"RA_OF_ASC_NODE":230.876,"ARG_OF_PERICENTER":98.0977,"MEAN_ANOMALY":262.013,"EPHEMERIS_TYPE":0,"CLASSIFICATION_TYPE":"U","NORAD_CAT_ID":60918,"ELEMENT_SET_NO":999,"REV_AT_EPOCH":6435,"BSTAR":2.5008e-5,"MEAN_MOTION_DOT":3.82e-6,"MEAN_MOTION_DDOT":0},{"OBJECT_NAME":"STARLINK-32367","OBJECT_ID":"2024-154S","EPOCH":"2025-10-17T03:42:03.648096","MEAN_MOTION":15.30191308,"ECCENTRICITY":0.0001396,"INCLINATION":53.1605,"RA_OF_ASC_NODE":230.2237,"ARG_OF_PERICENTER":75.1018,"MEAN_ANOMALY":285.0138,"EPHEMERIS_TYPE":0,"CLASSIFICATION_TYPE":"U","NORAD_CAT_ID":60919,"ELEMENT_SET_NO":999,"REV_AT_EPOCH":6436,"BSTAR":-6.5086e-6,"MEAN_MOTION_DOT":-5.52e-6,"MEAN_MOTION_DDOT":0},{"OBJECT_NAME":"STARLINK-32345","OBJECT_ID":"2024-154T","EPOCH":"2025-10-17T01:56:00.487680","MEAN_MOTION":15.30195362,"ECCENTRICITY":0.000106,"INCLINATION":53.1594,"RA_OF_ASC_NODE":231.184,"ARG_OF_PERICENTER":66.9802,"MEAN_ANOMALY":293.1311,"EPHEMERIS_TYPE":0,"CLASSIFICATION_TYPE":"U","NORAD_CAT_ID":60920,"ELEMENT_SET_NO":999,"REV_AT_EPOCH":6435,"BSTAR":1.622e-5,"MEAN_MOTION_DOT":1.21e-6,"MEAN_MOTION_DDOT":0},{"OBJECT_NAME":"STARLINK-32356","OBJECT_ID":"2024-154U","EPOCH":"2025-10-17T02:38:23.777088","MEAN_MOTION":15.30186891,"ECCENTRICITY":0.0001455,"INCLINATION":53.1598,"RA_OF_ASC_NODE":230.6549,"ARG_OF_PERICENTER":103.0262,"MEAN_ANOMALY":257.0902,"EPHEMERIS_TYPE":0,"CLASSIFICATION_TYPE":"U","NORAD_CAT_ID":60921,"ELEMENT_SET_NO":999,"REV_AT_EPOCH":6436,"BSTAR":7.8723e-5,"MEAN_MOTION_DOT":1.972e-5,"MEAN_MOTION_DDOT":0},{"OBJECT_NAME":"STARLINK-32274","OBJECT_ID":"2024-154V","EPOCH":"2025-10-17T03:02:41.790048","MEAN_MOTION":15.30203343,"ECCENTRICITY":0.000105,"INCLINATION":53.1612,"RA_OF_ASC_NODE":230.7626,"ARG_OF_PERICENTER":90.3092,"MEAN_ANOMALY":269.8029,"EPHEMERIS_TYPE":0,"CLASSIFICATION_TYPE":"U","NORAD_CAT_ID":60922,"ELEMENT_SET_NO":999,"REV_AT_EPOCH":6436,"BSTAR":1.5752e-5,"MEAN_MOTION_DOT":1.08e-6,"MEAN_MOTION_DDOT":0}]
